[{"OBJECT_NAME":"CHUANGXIN 16A (CX-16A)","OBJECT_ID":"2022-102A","EPOCH":"2026-03-09T19:59:28.991616","MEAN_MOTION":15.05552649,"ECCENTRICITY":0.0005063,"INCLINATION":28.9941,"RA_OF_ASC_NODE":256.1289,"ARG_OF_PERICENTER":43.7318,"MEAN_ANOMALY":316.3682,"EPHEMERIS_TYPE":0,"CLASSIFICATION_TYPE":"U","NORAD_CAT_ID":53586,"ELEMENT_SET_NO":999,"REV_AT_EPOCH":19453,"BSTAR":0.00020134,"MEAN_MOTION_DOT":3.128e-5,"MEAN_MOTION_DDOT":0},{"OBJECT_NAME":"DELTA 1 DEB","OBJECT_ID":"1977-065M","EPOCH":"2026-03-09T01:35:26.833920","MEAN_MOTION":14.02258817,"ECCENTRICITY":0.04653663,"INCLINATION":29.2135,"RA_OF_ASC_NODE":334.0643,"ARG_OF_PERICENTER":210.7683,"MEAN_ANOMALY":146.4816,"EPHEMERIS_TYPE":0,"CLASSIFICATION_TYPE":"U","NORAD_CAT_ID":10183,"ELEMENT_SET_NO":999,"REV_AT_EPOCH":39655,"BSTAR":0.00095577742,"MEAN_MOTION_DOT":4.037e-5,"MEAN_MOTION_DDOT":0}]
